DMSP 5D-3 F16 (USA 172) 
1 28054U 03048A   26063.75695681  .00000197  00000+0  12635-3 0  9994
2 28054  98.9997  86.8469 0008201  84.9216 336.4634 14.14459857154720
METEOSAT-9 (MSG-2)      
1 28912U 05049B   26063.09473407  .00000115  00000+0  00000+0 0  9996
2 28912   9.1243  55.1851 0001795 221.3911 325.1022  1.00277093  5941
DMSP 5D-3 F17 (USA 191) 
1 29522U 06050A   26063.79882742  .00000236  00000+0  14447-3 0  9998
2 29522  98.7413  72.4934 0010033   0.9945 359.1247 14.14961390997652
FENGYUN 3A              
1 32958U 08026A   26063.44887039  .00000166  00000+0  99150-4 0  9993
2 32958  98.6792   6.2962 0009799  71.7613 288.4629 14.19544519920546
GOES 14                 
1 35491U 09033A   26063.54628102  .00000118  00000+0  00000+0 0  9990
2 35491   1.4193  84.4200 0002261 298.8338 177.4573  1.00124457  5544
DMSP 5D-3 F18 (USA 210) 
1 35951U 09057A   26063.76203159  .00000343  00000+0  20088-3 0  9994
2 35951  98.8956  44.8081 0010849 182.2729 177.8397 14.14832230844824
EWS-G2 (GOES 15)        
1 36411U 10008A   26063.64952453  .00000011  00000+0  00000+0 0  9999
2 36411   1.0095  85.1375 0001885  20.0724 354.4917  1.00269311 58591
COMS 1                  
1 36744U 10032A   26063.70871568 -.00000353  00000+0  00000+0 0  9999
2 36744   4.5366  76.8652 0001200 284.1468 184.7502  1.00272271 50048
FENGYUN 3B              
1 37214U 10059A   26063.87363618 -.00000062  00000+0 -89757-5 0  9991
2 37214  98.9774 109.3802 0023010 121.2280  52.8588 14.14814852792673
SUOMI NPP               
1 37849U 11061A   26063.80929823  .00000130  00000+0  82600-4 0  9991
2 37849  98.7865   5.4509 0000407 278.2565  81.8564 14.19541928743634
METEOSAT-10 (MSG-3)     
1 38552U 12035B   26063.38239013 -.00000013  00000+0  00000+0 0  9993
2 38552   4.4237  61.4637 0002497 294.9203 303.6900  1.00277420 49808
METOP-B                 
1 38771U 12049A   26063.79922917  .00000163  00000+0  94396-4 0  9999
2 38771  98.6652 117.3153 0001211 292.8179  67.2870 14.21442831698438
INSAT-3D                
1 39216U 13038B   26063.85457584 -.00000348  00000+0  00000+0 0  9993
2 39216   1.6566  83.9077 0001748 242.9990 272.8215  1.00273268 46035
FENGYUN 3C              
1 39260U 13052A   26063.86994632  .00000156  00000+0  10070-3 0  9997
2 39260  98.4884  42.5915 0014056 327.7586  32.2728 14.15727164643806
METEOR-M 2              
1 40069U 14037A   26063.82634241  .00000044  00000+0  39420-4 0  9990
2 40069  98.5015  43.3165 0005650 352.2560   7.8530 14.21426135604495
HIMAWARI-8              
1 40267U 14060A   26063.82654578 -.00000286  00000+0  00000+0 0  9997
2 40267   0.0299 245.7583 0000756  85.3606 269.6539  1.00271870 41710
FENGYUN 2G              
1 40367U 14090A   26063.51997462 -.00000311  00000+0  00000+0 0  9998
2 40367   5.3743  74.0854 0001863 152.9569 222.0917  1.00274479 40952
